BANXING-2               
1 41834U 16057H   17346.46622653  .00011731  00000-0  86518-4 0  9999
2 41834  42.7833 352.6738 0007683  67.4938  60.1350 15.72974115 65136
